NORAD_CAT_ID,OBJECT_NAME,OBJECT_TYPE,EPOCH,MEAN_MOTION,ECCENTRICITY,INCLINATION,RA_OF_ASC_NODE,ARG_OF_PERICENTER,MEAN_ANOMALY,BSTAR,MEAN_MOTION_DOT,MEAN_MOTION_DDOT,TLE_LINE0,TLE_LINE1,TLE_LINE2,SEMIMAJOR_AXIS,PERIOD,APOGEE,PERIGEE,DECAYED
54799.0,STARLINK-5421,PAYLOAD,2023-09-12 21:29:20,15.08825981,0.0001484,53.2163,138.8188,103.0637,257.0521,0.00022868,3.352e-05,0.0,0 STARLINK-5421,1 54799U 22175AT  23255.89537967  .00003352  00000-0  22868-3 0  9994,2 54799  53.2163 138.8188 0001484 103.0637 257.0521 15.08825981 43073,6917.923,95.438,540.815,538.762,0.0
54799.0,STARLINK-5421,PAYLOAD,2023-09-12 23:04:43,15.0881677,0.0001567,53.2158,138.5202,107.8591,252.2572,0.00045173,6.904e-05,0.0,0 STARLINK-5421,1 54799U 22175AT  23255.96161886  .00006904  00000-0  45173-3 0  9995,2 54799  53.2158 138.5202 0001567 107.8591 252.2572 15.08816770 40924,6917.951,95.439,540.9,538.732,0.0
54799.0,STARLINK-5421,PAYLOAD,2023-09-13 21:20:07,15.08846722,0.0001339,53.2162,134.3598,96.0695,264.045,6.0584e-05,6.77e-06,0.0,0 STARLINK-5421,1 54799U 22175AT  23256.88897134  .00000677  00000-0  60584-4 0  9994,2 54799  53.2162 134.3598 0001339  96.0695 264.0450 15.08846722 43224,6917.86,95.437,540.651,538.799,0.0
54799.0,STARLINK-5421,PAYLOAD,2023-09-14 00:30:53,15.08852778,0.0001243,53.2158,133.7669,91.8318,268.2816,5.5859e-05,6.02e-06,0.0,0 STARLINK-5421,1 54799U 22175AT  23257.02144754  .00000602  00000-0  55859-4 0  9991,2 54799  53.2158 133.7669 0001243  91.8318 268.2816 15.08852778 41082,6917.841,95.437,540.566,538.846,0.0
54799.0,STARLINK-5421,PAYLOAD,2023-09-14 21:10:55,15.08829235,0.000127,53.2156,129.9015,98.2067,261.9069,-5.3332e-05,-1.136e-05,0.0,0 STARLINK-5421,1 54799U 22175AT  23257.88258934 -.00001136  00000-0 -53332-4 0  9990,2 54799  53.2156 129.9015 0001270  98.2067 261.9069 15.08829235 43370,6917.913,95.438,540.657,538.9,0.0
54799.0,STARLINK-5421,PAYLOAD,2023-09-15 01:57:05,15.08829861,0.0001331,53.2161,129.0078,92.7107,267.4037,-4.9828e-05,-1.081e-05,0.0,0 STARLINK-5421,1 54799U 22175AT  23258.08131017 -.00001081  00000-0 -49828-4 0  9999,2 54799  53.2161 129.0078 0001331  92.7107 267.4037 15.08829861 41243,6917.911,95.438,540.697,538.856,0.0
54799.0,STARLINK-5421,PAYLOAD,2023-09-16 00:12:27,15.08851275,0.0001369,53.2167,124.8448,90.1866,269.9283,0.00011451,1.536e-05,0.0,0 STARLINK-5421,1 54799U 22175AT  23259.00865503  .00001536  00000-0  11451-3 0  9999,2 54799  53.2167 124.8448 0001369  90.1866 269.9283 15.08851275 41387,6917.846,95.437,540.658,538.764,0.0
54799.0,STARLINK-5421,PAYLOAD,2023-09-17 00:03:15,15.0884083,0.0001412,53.2165,120.3842,90.8583,269.257,0.00022044,3.222e-05,0.0,0 STARLINK-5421,1 54799U 22175AT  23260.00226524  .00003222  00000-0  22044-3 0  9999,2 54799  53.2165 120.3842 0001412  90.8583 269.2570 15.08840830 41530,6917.878,95.438,540.72,538.766,0.0
54799.0,STARLINK-5421,PAYLOAD,2023-09-17 23:54:02,15.08850893,0.000141,53.2155,115.9218,94.7556,265.3597,0.00011636,1.565e-05,0.0,0 STARLINK-5421,1 54799U 22175AT  23260.99585958  .00001565  00000-0  11636-3 0  9999,2 54799  53.2155 115.9218 0001410  94.7556 265.3597 15.08850893 43849,6917.847,95.437,540.688,538.737,0.0
54799.0,STARLINK-5421,PAYLOAD,2023-09-18 20:34:03,15.08842066,0.0001364,53.2153,112.0553,89.8187,270.2962,9.4676e-05,1.219e-05,0.0,0 STARLINK-5421,1 54799U 22175AT  23261.85698504  .00001219  00000-0  94676-4 0  9999,2 54799  53.2153 112.0553 0001364  89.8187 270.2962 15.08842066 43978,6917.874,95.437,540.683,538.795,0.0
54799.0,STARLINK-5421,PAYLOAD,2023-09-18 23:44:49,15.08843252,0.0001352,53.2153,111.4605,89.9541,270.1606,0.0001059,1.398e-05,0.0,0 STARLINK-5421,1 54799U 22175AT  23261.98946424  .00001398  00000-0  10590-3 0  9990,2 54799  53.2153 111.4605 0001352  89.9541 270.1606 15.08843252 41836,6917.87,95.437,540.671,538.8,0.0
54799.0,STARLINK-5421,PAYLOAD,2023-09-19 23:35:36,15.08857382,0.0001354,53.215,107.0004,84.5231,275.5916,0.00031261,4.693e-05,0.0,0 STARLINK-5421,1 54799U 22175AT  23262.98305581  .00004693  00000-0  31261-3 0  9993,2 54799  53.2150 107.0004 0001354  84.5231 275.5916 15.08857382 41984,6917.827,95.436,540.629,538.756,0.0
54799.0,STARLINK-5421,PAYLOAD,2023-09-20 18:40:14,15.088274,0.0001589,53.2152,103.426,117.1559,242.9595,3.1603e-05,2.15e-06,0.0,0 STARLINK-5421,1 54799U 22175AT  23263.77794974  .00000215  00000-0  31603-4 0  9996,2 54799  53.2152 103.4260 0001589 117.1559 242.9595 15.08827400 42100,6917.919,95.438,540.883,538.685,0.0
54799.0,STARLINK-5421,PAYLOAD,2023-09-20 20:15:38,15.08825112,0.0001308,53.2151,103.1332,86.4029,273.7113,-0.00018866,-3.288e-05,0.0,0 STARLINK-5421,1 54799U 22175AT  23263.84419225 -.00003288  00000-0 -18866-3 0  9997,2 54799  53.2151 103.1332 0001308  86.4029 273.7113 15.08825112 44271,6917.926,95.438,540.696,538.886,0.0
54799.0,STARLINK-5421,PAYLOAD,2023-09-21 05:47:57,15.08830377,0.0001267,53.2154,101.3518,100.6378,259.4757,-4.4811e-05,-1.001e-05,0.0,0 STARLINK-5421,1 54799U 22175AT  23264.24163271 -.00001001  00000-0 -44811-4 0  9990,2 54799  53.2154 101.3518 0001267 100.6378 259.4757 15.08830377 44331,6917.91,95.438,540.651,538.898,0.0
54799.0,STARLINK-5421,PAYLOAD,2023-09-21 18:31:02,15.08837994,0.0001222,53.2154,98.9726,99.2368,260.8762,0.00016951,2.411e-05,0.0,0 STARLINK-5421,1 54799U 22175AT  23264.77155346  .00002411  00000-0  16951-3 0  9999,2 54799  53.2154  98.9726 0001222  99.2368 260.8762 15.08837994 42259,6917.887,95.438,540.597,538.906,0.0
54799.0,STARLINK-5421,PAYLOAD,2023-09-21 20:06:25,15.08842078,0.0001231,53.2156,98.6761,98.4581,261.655,0.00027198,4.044e-05,0.0,0 STARLINK-5421,1 54799U 22175AT  23264.83779279  .00004044  00000-0  27198-3 0  9992,2 54799  53.2156  98.6761 0001231  98.4581 261.6550 15.08842078 44429,6917.874,95.437,540.591,538.887,0.0
54799.0,STARLINK-5421,PAYLOAD,2023-09-22 12:00:16,15.08846737,0.0001212,53.2154,95.7028,101.7949,258.3179,0.00048665,7.467e-05,0.0,0 STARLINK-5421,1 54799U 22175AT  23265.50019473  .00007467  00000-0  48665-3 0  9994,2 54799  53.2154  95.7028 0001212 101.7949 258.3179 15.08846737 44523,6917.86,95.437,540.563,538.886,0.0
54799.0,STARLINK-5421,PAYLOAD,2023-09-22 18:21:49,15.0885301,0.0001169,53.2153,94.5131,100.9239,259.1885,0.00051,7.841e-05,0.0,0 STARLINK-5421,1 54799U 22175AT  23265.76515228  .00007841  00000-0  51000-3 0  9994,2 54799  53.2153  94.5131 0001169 100.9239 259.1885 15.08853010 44567,6917.841,95.437,540.514,538.897,0.0
54799.0,STARLINK-5421,PAYLOAD,2023-09-23 11:51:03,15.0884662,0.0001155,53.2149,91.2423,104.1465,255.9655,0.00011204,1.496e-05,0.0,0 STARLINK-5421,1 54799U 22175AT  23266.49378994  .00001496  00000-0  11204-3 0  9994,2 54799  53.2149  91.2423 0001155 104.1465 255.9655 15.08846620 42513,6917.86,95.437,540.524,538.926,0.0
54799.0,STARLINK-5421,PAYLOAD,2023-09-24 11:41:50,15.08844572,0.0001147,53.215,86.7821,92.4311,267.6813,0.00011415,1.53e-05,0.0,0 STARLINK-5421,1 54799U 22175AT  23267.48738914  .00001530  00000-0  11415-3 0  9999,2 54799  53.2150  86.7821 0001147  92.4311 267.6813 15.08844572 44822,6917.866,95.437,540.525,538.938,0.0
54799.0,STARLINK-5421,PAYLOAD,2023-09-24 18:03:22,15.08845916,0.0001162,53.2154,85.5922,86.8373,273.2752,8.0272e-05,9.9e-06,0.0,0 STARLINK-5421,1 54799U 22175AT  23267.75234899  .00000990  00000-0  80272-4 0  9999,2 54799  53.2154  85.5922 0001162  86.8373 273.2752 15.08845916 42700,6917.862,95.437,540.531,538.923,0.0
54799.0,STARLINK-5421,PAYLOAD,2023-09-24 19:38:46,15.08847408,0.0001176,53.2155,85.2947,86.4459,273.6668,9.7659e-05,1.267e-05,0.0,0 STARLINK-5421,1 54799U 22175AT  23267.81858799  .00001267  00000-0  97659-4 0  9992,2 54799  53.2155  85.2947 0001176  86.4459 273.6668 15.08847408 44879,6917.858,95.437,540.536,538.909,0.0
54799.0,STARLINK-5421,PAYLOAD,2023-09-25 11:32:37,15.08842883,0.0001302,53.2157,82.321,76.6579,283.4558,6.8991e-05,8.1e-06,0.0,0 STARLINK-5421,1 54799U 22175AT  23268.48099052  .00000810  00000-0  68991-4 0  9995,2 54799  53.2157  82.3210 0001302  76.6579 283.4558 15.08842883 44977,6917.872,95.437,540.637,538.836,0.0
54799.0,STARLINK-5421,PAYLOAD,2023-09-25 17:54:09,15.08849004,0.0001264,53.2156,81.1312,78.2395,281.8739,0.00014592,2.036e-05,0.0,0 STARLINK-5421,1 54799U 22175AT  23268.74594684  .00002036  00000-0  14592-3 0  9994,2 54799  53.2156  81.1312 0001264  78.2395 281.8739 15.08849004 45018,6917.853,95.437,540.592,538.843,0.0
54799.0,STARLINK-5421,PAYLOAD,2023-09-26 14:34:11,15.08834733,0.0001249,53.2155,77.2654,79.5051,280.6082,4.1247e-06,-2.22e-06,0.0,0 STARLINK-5421,1 54799U 22175AT  23269.60707685 -.00000222  00000-0  41247-5 0  9992,2 54799  53.2155  77.2654 0001249  79.5051 280.6082 15.08834733 45143,6917.896,95.438,540.626,538.897,0.0
54799.0,STARLINK-5421,PAYLOAD,2023-09-26 16:09:34,15.0883524,0.0001344,53.2155,76.9687,73.6142,286.4997,2.0564e-05,3.9e-07,0.0,0 STARLINK-5421,1 54799U 22175AT  23269.67331750  .00000039  00000-0  20564-4 0  9998,2 54799  53.2155  76.9687 0001344  73.6142 286.4997 15.08835240 42990,6917.895,95.438,540.69,538.83,0.0
54799.0,STARLINK-5421,PAYLOAD,2023-09-26 20:55:43,15.08837748,0.0001342,53.2153,76.0757,84.5232,275.5913,6.4608e-05,7.4e-06,0.0,0 STARLINK-5421,1 54799U 22175AT  23269.87203639  .00000740  00000-0  64608-4 0  9990,2 54799  53.2153  76.0757 0001342  84.5232 275.5913 15.08837748 45182,6917.887,95.438,540.681,538.824,0.0
54799.0,STARLINK-5421,PAYLOAD,2023-09-27 16:00:21,15.08844425,0.0001402,53.216,72.506,82.9194,277.1957,0.00011885,1.604e-05,0.0,0 STARLINK-5421,1 54799U 22175AT  23270.66691522  .00001604  00000-0  11885-3 0  9999,2 54799  53.2160  72.5060 0001402  82.9194 277.1957 15.08844425 43144,6917.867,95.437,540.702,538.762,0.0
54799.0,STARLINK-5421,PAYLOAD,2023-09-28 11:04:59,15.08840722,0.0001512,53.2158,68.9357,89.4182,270.6983,0.0001889,2.72e-05,0.0,0 STARLINK-5421,1 54799U 22175AT  23271.46179711  .00002720  00000-0  18890-3 0  9992,2 54799  53.2158  68.9357 0001512  89.4182 270.6983 15.08840722 43266,6917.878,95.438,540.789,538.697,0.0
